#dP2024  6 25  0  0  0.00000000      96 __u+U IGS20 EXT  IAC
## 2320 172800.00000000   900.00000000 60486 0.0000000000000
+   54   G02G03G04G05G06G07G08G09G10G11G12G13G14G15G16G17G18
+        G19G20G21G22G23G24G25G26G27G28G29G30G31G32R01R02R03
+        R04R05R07R08R09R11R12R13R14R15R16R17R18R19R20R21R22
+        R24R25R26  0  0  0  0  0  0  0  0  0  0  0  0  0  0
+          0  0  0  0  0  0  0  0  0  0  0  0  0  0  0  0  0
++         7  8  8  8  9  7  8  8  8  8  8  7  7  8  7  8  9
++         8  8  7  8  9  8  7  9  8  7  9  9  8  8 10  9  8
++         9  8  7  8  9  9  7  8  6  7  9  8  9  7 10  7  8
++         8  7  8  0  0  0  0  0  0  0  0  0  0  0  0  0  0
++         0  0  0  0  0  0  0  0  0  0  0  0  0  0  0  0  0
%c M  cc GPS ccc cccc cccc cccc cccc ccccc ccccc ccccc ccccc
%c cc cc ccc ccc cccc cccc cccc cccc ccccc ccccc ccccc ccccc
%f  0.0000000  0.000000000  0.00000000000  0.000000000000000
%f  0.0000000  0.000000000  0.00000000000  0.000000000000000
%i    0    0    0    0      0      0      0      0         0
%i    0    0    0    0      0      0      0      0         0
/* IAC                                ULTRA-RAPID PREDICTION
/* S/V CLOCKS ARE ALIGNED TO GNSS TIME                      
/* G:C1WC2W R:C1PC2P E:C1XC5X C:C2IC6I J:C1CC2S             
/* PCV:IGS20_2317 OL/AL:FES2004  NONE     YN ORB:CoN CLK:CoN
*  2024 06 25 20  0  0.00000000
PG02 -11403.750175  20438.560466 -11788.917939   -410.946081
PG03   1161.675022  16068.723899 -21301.496140    430.336895
PG04  -1472.121001  26050.363752  -4545.226970    390.841966
PG05  15216.078183  -8556.656137  19859.703215   -177.587936
PG06  20831.400783  -1351.694406 -16426.354295    198.049753
PG07   7150.422019  14094.161643  21836.545433    -83.818797
PG08  -7529.596586  20712.118213  14398.948378    246.656549
PG09   7922.205836  24337.444646   6909.917912    248.736566
PG10 -24479.345767 -10737.026667   -505.444165    -51.017883
PG11  23478.270847 -11464.216613  -4581.385142   -692.913300
PG12   2569.776303 -15681.075895 -21569.091159   -517.132442
PG13  13215.617716 -13274.819993  18522.748831    660.406274
PG14  22948.537567  13315.299429   2836.140503    434.064807
PG15   4815.935225 -21804.582931  13734.506521    174.149469
PG16 -18787.804250   4011.626934  18194.275282   -254.202670
PG17  12760.576729  14505.969222 -17736.230176    688.880858
PG18  -7099.934243 -13194.082882  21932.471667   -629.425233
PG19  14842.144328   5299.319055 -21604.493721    501.562318
PG20  22497.099951  -4135.276247  13430.852714    373.437893
PG21 -15171.261824  19750.425173  -7132.369222    113.076981
PG22  24011.103361   9542.283635  -5024.219696    -31.906070
PG23 -18807.589760 -15625.634782  10645.176936    258.999119
PG24  11915.186852 -21097.675426 -10810.178722   -479.957197
PG25  -9014.527773 -17847.830467 -17945.701131    497.814869
PG26 -25436.981072  -3177.194466   7489.448381    130.902035
PG27 -13124.582396  10257.883161  20297.459387    -29.406801
PG28 -19710.478333   -538.318985 -17804.112844   -304.688268
PG29  -3566.759214 -25887.066789   4313.097418   -592.566390
PG30  16842.794260   5968.745481  19876.412981   -368.309680
PG31 -23760.324179   8264.515406  -9329.305591   -227.185749
PG32 -14406.765802 -11994.338797 -18680.306898   -614.972669
PR01  12983.952605  21889.591440   1846.817430     89.480925
PR02  14747.663557  11525.089600  17342.625604    -23.442464
PR03   9062.984990  -6046.059246  23112.848010    102.742411
PR04  -1412.551792 -19648.508381  16241.574193    242.736480
PR05 -11045.423223 -22996.649351    646.970242    133.641018
PR07  -8688.754181   6657.136399 -22996.934598     85.336379
PR08   1716.543771  19792.403218 -15920.181646     -5.339688
PR09 -24637.644701  -3195.467887  -5561.755376    194.220547
PR11  -8979.822207   9972.692570  21702.145601     20.232314
PR12  12365.890265  10123.455228  19907.353736     41.723564
PR13  23707.675303   4712.890760   8140.898113    -48.693903
PR14  22330.437790  -4724.495616 -11395.544220     26.619316
PR15   7342.150846 -10327.348001 -22115.155432     78.477546
PR16 -12188.160513  -9965.991004 -20041.478628     26.805176
PR17  16504.639175 -16133.559738 -10810.386199     99.058672
PR18  11740.297132 -21971.852459   5600.459029    148.798015
PR19   2673.932808 -17655.478220  18205.259545   -281.624532
PR20 -12035.842926   -479.040707  22481.265321   -115.116027
PR21 -16646.007854  15833.901728  11111.597672   -112.327076
PR22 -11568.230466  21724.584740  -6661.110836     97.931328
PR24  12705.822366   -350.247639 -22101.310440    -61.316771
PR25 -17249.468874  15630.466382  10460.348671    -84.841856
PR26    950.757644  19060.196565 -16918.284764     -5.519430
*  2024 06 25 20 15  0.00000000
PG02 -12508.296792  21123.195126  -9268.508768   -410.939658
PG03  -1096.260681  15163.765781 -21952.749145    430.352633
PG04  -1780.937893  25394.738298  -7309.589525    390.849156
PG05  17274.536705  -7706.374858  18496.963029   -177.589192
PG06  19302.956450    -82.374448 -18232.985013    198.030222
PG07   5233.290638  15492.705275  21376.484770    -83.810595
PG08  -8046.497776  18976.379770  16398.219128    246.672334
PG09   7768.743664  25013.162819   4148.991985    248.749833
PG10 -24340.754767 -10854.579672   2375.126287    -51.025820
PG11  23050.747248 -10878.713919  -7341.485651   -692.920170
PG12   4757.947221 -14627.170507 -21935.220216   -517.135346
PG13  13315.488413 -11031.288902  19879.802399    660.408541
PG14  22401.408055  13375.586858   5594.246025    434.072922
PG15   5564.476881 -20169.519221  15748.137001    174.153251
PG16 -20526.925778   2956.288821  16508.161167   -254.193026
PG17  12738.997672  16516.004077 -15930.332549    688.875130
PG18  -5082.321450 -14642.977013  21552.043731   -629.429364
PG19  14866.849087   7685.588631 -20887.531245    501.567170
PG20  23815.249349  -3608.168424  11081.695558    373.437475
PG21 -15926.268468  20002.118024  -4319.704379    113.074702
PG22  24292.520220  10002.743825  -2190.678596    -31.910394
PG23 -17495.820607 -15292.494744  13074.015227    259.007289
PG24  12903.041221 -21587.361254  -8283.785814   -479.959182
PG25  -7042.070033 -17210.195658 -19396.046290    497.815314
PG26 -26029.345466  -3682.470757   4834.329771    130.896228
PG27 -13555.124067   7857.932394  21096.806454    -29.407874
PG28 -18156.606078  -1987.692628 -19292.320088   -304.703147
PG29  -3352.560390 -26236.152139   1454.489156   -592.564823
PG30  15075.861624   7440.802522  20761.109348   -368.303986
PG31 -22941.888383   7403.647498 -11793.958774   -227.185546
PG32 -14565.850596 -14070.306243 -17075.021447   -614.971367
PR01  13127.378594  21839.256502  -1364.213929     89.481849
PR02  15800.837848  13221.528255  15041.312679    -23.442697
PR03  10437.492363  -3564.115110  23044.151641    102.743048
PR04   -506.259497 -17715.398322  18380.544262    242.737963
PR05 -11074.847942 -22666.987575   3858.069453    133.641600
PR07 -10065.625054   4160.598053 -23026.564539     85.337135
PR08    791.011144  17890.684177 -18090.297593     -5.340048
PR09 -23758.651061  -3128.968364  -8593.716316    194.222336
PR11 -11575.980972  10015.056303  20412.400958     20.231133
PR12   9829.994497  10034.159991  21319.036894     41.723874
PR13  22522.682882   4594.976664  11050.179651    -48.694305
PR14  23561.048236  -4825.105830  -8518.593795     26.619225
PR15  10010.109850 -10335.789218 -21040.499698     78.477172
PR16  -9624.779929  -9881.884914 -21432.034167     26.805400
PR17  15583.830039 -14930.057580 -13559.961336     99.061622
PR18  11828.189180 -22499.039296   2413.104715    148.799624
PR19   3728.844448 -19496.006199  16009.630893   -281.625824
PR20 -10427.817908  -2793.212528  23110.410717   -115.116921
PR21 -15686.102833  14615.826259  13838.200585   -112.330051
PR22 -11796.594594  22331.211126  -3527.497587     97.926570
PR24  11233.290551   2000.754507 -22801.260468    -61.318246
PR25 -16334.309835  14485.913854  13212.947954    -84.869698
PR26    -40.466653  17074.715917 -18939.785041     -5.518737
EOF
